CHALLENGER              
1 42721U 98067MA  18021.51173782  .00034503  00000-0  30197-3 0  9990
2 42721  51.6362  18.4263 0006636  43.2188 316.9329 15.68535229 37685
NJUST-1                 
1 42722U 98067MB  18021.45649309  .00013977  00000-0  16318-3 0  9998
2 42722  51.6384  23.3454 0006919  43.2278 316.9257 15.61900201 37613
UNSW-ECO                
1 42723U 98067MC  18021.46707451  .00022879  00000-0  23373-3 0  9993
2 42723  51.6391  21.1713 0006616  42.1703 317.9800 15.64925592 37620
DUTHSAT                 
1 42724U 98067MD  18021.55475094  .00032116  00000-0  28879-3 0  9990
2 42724  51.6368  18.7326 0005950  45.0512 315.0966 15.67913260 37586
LILACSAT-1              
1 42725U 98067ME  18021.53196480  .00018580  00000-0  20602-3 0  9993
2 42725  51.6383  22.3510 0006020  45.4976 314.6510 15.62987831 37543
NSIGHT-1                
1 42726U 98067MF  18021.45479202  .00007757  00000-0  10374-3 0  9990
2 42726  51.6397  25.6016 0006397  47.9711 312.1826 15.59082285 37499
SNUSAT-1                
1 42727U 98067MG  18021.40748113  .00017897  00000-0  19914-3 0  9991
2 42727  51.6369  22.9942 0007313  10.6404 349.4744 15.62919034 37488
QBITO                   
1 42728U 98067MH  18021.46556566  .00020012  00000-0  21460-3 0  9999
2 42728  51.6401  21.9320 0003771  50.3338 309.7989 15.63801200 37347
AALTO-2                 
1 42729U 98067MJ  18021.52530226  .00020119  00000-0  21489-3 0  9991
2 42729  51.6384  21.5590 0003747  49.7268 310.4054 15.63898541 37368
SUSAT                   
1 42730U 98067MK  18021.43011000  .00018284  00000-0  19989-3 0  9999
2 42730  51.6379  22.4153 0003797  47.2828 312.8486 15.63374772 37336
I-INSPIRE II            
1 42731U 98067ML  18021.44192127  .00023729  00000-0  23884-3 0  9990
2 42731  51.6372  20.9711 0006397   0.6602 359.4400 15.65278021 37408
POLYITAN-2-SAU          
1 42732U 98067MM  18021.50981349  .00019721  00000-0  20898-3 0  9999
2 42732  51.6377  21.4333 0006407 359.2002   0.8982 15.64102486 37401
SNUSAT-1B               
1 42733U 98067MN  18021.43141528  .00018034  00000-0  19727-3 0  9994
2 42733  51.6380  22.4152 0006551   0.4064 359.6935 15.63358703 37383
EXALTA-1                
1 42734U 98067MP  18021.51142234  .00023535  00000-0  23671-3 0  9994
2 42734  51.6363  20.6849 0007888  21.7467 338.3862 15.65290757 37362
AOXIANG-1               
1 42735U 98067MQ  18021.50754778  .00013652  00000-0  15849-3 0  9993
2 42735  51.6377  22.9260 0007423  40.5771 319.5775 15.62067876 38751
BEEAGLESAT              
1 42736U 98067MR  18021.53434074  .00016884  00000-0  18947-3 0  9993
2 42736  51.6376  22.3531 0007293  39.6461 320.5066 15.62749481 37456
ATLANTIS                
1 42737U 98067MS  18020.41341387  .00100730  00000-0  56518-3 0  9994
2 42737  51.6289  18.5091 0007136  42.0405 318.1142 15.78452636 37290
PROGRESS-MS 06          
1 42756U 17033A   17361.53692593  .00001778  00000-0  33974-4 0  9991
2 42756  51.6414 154.4377 0002507 297.8505 171.2653 15.54221350 30510
ISS DEB (ROSA)          
1 42813U 98067MT  18021.43746036  .00437961  88417-4  10719-2 0  9995
2 42813  51.6287  11.0494 0007184  81.9580 278.2242 15.95534638 32886
SOYUZ-MS 06             
1 42937U 17054A   18020.52438264  .00001624  00000-0  31710-4 0  9996
2 42937  51.6424  34.8398 0003540  31.0368 104.9205 15.54187370 95553
PROGRESS-MS 07          
1 42971U 17065A   18020.52438264  .00001624  00000-0  31710-4 0  9996
2 42971  51.6424  34.8398 0003540  31.0368 104.9205 15.54187370 95551
SIMPL                   
1 42983U 98067NF  18021.50495696  .00002698  00000-0  46267-4 0  9996
2 42983  51.6432  29.5224 0004809  26.2061  45.8238 15.55185676 13385
ECAMSAT                 
1 43019U 98067NG  18021.49103351  .00005102  00000-0  80325-4 0  9995
2 43019  51.6406  29.5849 0005258 354.8743   5.2194 15.55473059 95708
ASTERIA                 
1 43020U 98067NH  18021.54438745  .00010910  00000-0  16040-3 0  9996
2 43020  51.6407  29.1944 0002643 359.7642   0.3348 15.56024709  9639
DELLINGR (RBLE)         
1 43021U 98067NJ  18021.49090458  .00006584  00000-0  10133-3 0  9995
2 43021  51.6407  29.5857 0002370 359.9925   0.1066 15.55545701  9623
TECHEDSAT 6             
1 43026U 98067NK  18021.55595722  .00060590  00000-0  68913-3 0  9997
2 43026  51.6384  27.7668 0004025  43.3928 316.7382 15.61700704  9550
OSIRIS-3U               
1 43027U 98067NL  18021.44936854  .00018513  00000-0  25444-3 0  9991
2 43027  51.6402  29.3093 0003424 341.8909  18.1960 15.57341408  9506
DRAGON CRS-13           
1 43060U 17080A   18013.43819444 -.00000207  00000-0  40301-5 0  9992
2 43060  51.6410  69.9362 0005652 135.1181 288.6702 15.56261152  4488
SOYUZ-MS 07             
1 43063U 17081A   18020.52438264  .00001624  00000-0  31710-4 0  9997
2 43063  51.6424  34.8398 0003540  31.0368 104.9205 15.54187370  5308
